      2.10          N: GNSS NAV DATA                        RINEX VERSION / TYPE
fic2rin                                 05/09/2022 00:17:44 PGM / RUN BY / DATE
                                                            END OF HEADER
8  22  5  8  1 59 44.0 -.670962035656D-04 -.159161572810D-11  .000000000000D+00
     .160000000000D+02  .590312500000D+02  .428232123301D-08  .852148878553D+00
     .313296914101D-05  .744195783045D-02  .651925802231D-05  .515375960732D+04
     .718400000000D+04  .428408384323D-07  .179030136803D+01  .162050127983D-06
     .963576958242D+00  .255156250000D+03  .163712638717D+00 -.801604818630D-08
    -.250010413937D-11  .100000000000D+01  .220900000000D+04  .000000000000D+00
     .240000000000D+01  .000000000000D+00  .512227416039D-08  .160000000000D+02
     .000000000000D+00  .400000000000D+01
16 22  5  9  0  0  0.0 -.499171670526D-03 -.341060513165D-11  .000000000000D+00
     .790000000000D+02  .210000000000D+02  .430267922386D-08  .792403789884D+00
     .120513141155D-05  .127452423330D-01  .717304646969D-05  .515364373016D+04
     .864000000000D+05 -.219792127609D-06  .853107297629D+00  .109896063805D-06
     .969385708543D+00  .247500000000D+03  .728849148430D+00 -.803426323074D-08
    -.314298806093D-09  .100000000000D+01  .220900000000D+04  .000000000000D+00
     .240000000000D+01  .000000000000D+00 -.102445483208D-07  .790000000000D+02
     .792000000000D+05  .400000000000D+01
12 22  5  9  0  0  0.0 -.212518498302D-03 -.579802872380D-11  .000000000000D+00
     .770000000000D+02  .297812500000D+02  .419624621907D-08  .265914592497D+01
     .151246786118D-05  .867576384917D-02  .692531466484D-05  .515355173874D+04
     .864000000000D+05  .102445483208D-06  .834536708318D+00 -.391155481339D-07
     .969496607974D+00  .248437500000D+03  .128399949114D+01 -.771639284731D-08
    -.212151694112D-09  .100000000000D+01  .220900000000D+04  .000000000000D+00
     .240000000000D+01  .000000000000D+00 -.125728547573D-07  .770000000000D+02
     .792000000000D+05  .400000000000D+01
29 22  5  9  0  0  0.0 -.511619728059D-03 -.397903932026D-11  .000000000000D+00
     .750000000000D+02  .511250000000D+02  .392766360295D-08 -.131323566611D-01
     .252947211266D-05  .213035929482D-02  .798515975475D-05  .515371391678D+04
     .864000000000D+05  .186264514923D-08  .188605740675D+01 -.130385160446D-07
     .980854213864D+00  .232031250000D+03  .225232123838D+01 -.783996942334D-08
     .192865176466D-10  .100000000000D+01  .220900000000D+04  .000000000000D+00
     .240000000000D+01  .000000000000D+00 -.102445483208D-07  .750000000000D+02
     .792000000000D+05  .400000000000D+01
15 22  5  9  0  0  0.0 -.627534464002D-04  .295585778076D-11  .000000000000D+00
     .890000000000D+02 -.559687500000D+02  .520378818724D-08 -.111669209551D+01
    -.281073153019D-05  .140273622237D-01  .897049903870D-05  .515378220749D+04
     .864000000000D+05  .137835741043D-06 -.145832247573D+01  .376254320145D-06
     .929918731556D+00  .188031250000D+03  .109011956374D+01 -.834570477496D-08
    -.707172313708D-10  .100000000000D+01  .220900000000D+04  .000000000000D+00
     .240000000000D+01  .000000000000D+00 -.107102096081D-07  .890000000000D+02
     .792000000000D+05  .400000000000D+01
9  22  5  9  0  0  0.0 -.338174868375D-03  .284217094304D-11  .000000000000D+00
     .680000000000D+02 -.375312500000D+02  .460554898246D-08  .349968878683D+00
    -.204890966415D-05  .208323146217D-02  .913254916668D-05  .515357193184D+04
     .864000000000D+05 -.372529029846D-07 -.135006500180D+01 -.540167093277D-07
     .954022638804D+00  .200562500000D+03  .187334215291D+01 -.799783314185D-08
    -.125005206969D-10  .100000000000D+01  .220900000000D+04  .000000000000D+00
     .240000000000D+01  .000000000000D+00  .139698386192D-08  .680000000000D+02
     .792000000000D+05  .400000000000D+01
13 22  5  9  0  0  0.0  .308168120682D-03  .682121026330D-11  .000000000000D+00
     .600000000000D+02 -.389687500000D+02  .435339562212D-08 -.594297629670D+00
    -.209361314774D-05  .589575467166D-02  .957585871220D-05  .515367537117D+04
     .864000000000D+05 -.391155481339D-07 -.119584206689D+01  .134110450745D-06
     .968424349001D+00  .195656250000D+03  .922030810398D+00 -.792675875275D-08
     .107147320259D-11  .100000000000D+01  .220900000000D+04  .000000000000D+00
     .240000000000D+01  .000000000000D+00 -.116415321827D-07  .600000000000D+02
     .792000000000D+05  .400000000000D+01
32 22  5  9  0  0  0.0 -.122778583318D-03 -.852651282912D-11  .000000000000D+00
     .610000000000D+02 -.471875000000D+02  .460662045566D-08  .520753923171D+00
    -.230595469475D-05  .594245584216D-02  .866875052452D-05  .515359518623D+04
     .864000000000D+05 -.316649675369D-07 -.133850153408D+01  .856816768646D-07
     .957841355309D+00  .212656250000D+03 -.228920044934D+01 -.803462038848D-08
    -.532165023952D-10  .100000000000D+01  .220900000000D+04  .000000000000D+00
     .240000000000D+01  .000000000000D+00  .465661287308D-09  .610000000000D+02
     .792000000000D+05  .400000000000D+01
30 22  5  9  0  0  0.0 -.527138821781D-03 -.147792889038D-11  .000000000000D+00
     .360000000000D+02  .235937500000D+02  .509806949791D-08 -.301843737931D+01
     .115856528282D-05  .579080241732D-02  .756233930588D-05  .515377033234D+04
     .864000000000D+05 -.372529029846D-07 -.266378599829D+00 -.353902578354D-07
     .936261309442D+00  .220718750000D+03 -.269893228477D+01 -.817248327387D-08
     .653598653579D-10  .100000000000D+01  .220900000000D+04  .000000000000D+00
     .240000000000D+01  .000000000000D+00  .372529029846D-08  .360000000000D+02
     .792000000000D+05  .400000000000D+01
24 22  5  9  0  0  0.0  .244401395321D-03 -.648014975013D-11  .000000000000D+00
     .730000000000D+02  .193125000000D+02  .501128016851D-08 -.204135505248D+01
     .101700425148D-05  .124504874693D-01  .773929059505D-05  .515368508530D+04
     .864000000000D+05  .894069671631D-07 -.362371299202D+00 -.167638063431D-06
     .934558248971D+00  .216031250000D+03  .814013249182D+00 -.799640451092D-08
     .187507810453D-09  .100000000000D+01  .220900000000D+04  .000000000000D+00
     .240000000000D+01  .000000000000D+00  .279396772385D-08  .730000000000D+02
     .792000000000D+05  .400000000000D+01
22 22  5  9  0  0  0.0  .256036408246D-03  .613908923697D-11  .000000000000D+00
     .500000000000D+02 -.385937500000D+02  .458483383388D-08 -.291699824617D+00
    -.192970037460D-05  .133251692168D-01  .889785587788D-05  .515368697357D+04
     .864000000000D+05 -.838190317154D-07 -.124804854267D+01  .137835741043D-06
     .961122854648D+00  .210687500000D+03 -.185391426873D+01 -.817605485122D-08
     .203579908492D-10  .100000000000D+01  .220900000000D+04  .000000000000D+00
     .240000000000D+01  .000000000000D+00 -.838190317154D-08  .500000000000D+02
     .792000000000D+05  .400000000000D+01
20 22  5  9  0  0  0.0  .515457708389D-03 -.227373675443D-12  .000000000000D+00
     .560000000000D+02 -.667812500000D+02  .517807283037D-08 -.131619850532D+01
    -.325404107571D-05  .480412179604D-02  .487640500069D-05  .515357212257D+04
     .864000000000D+05  .670552253723D-07 -.253510244876D+01  .558793544769D-08
     .942967653611D+00  .275218750000D+03 -.312127458815D+01 -.852249785339D-08
     .464305054455D-10  .100000000000D+01  .220900000000D+04  .000000000000D+00
     .240000000000D+01  .000000000000D+00 -.838190317154D-08  .560000000000D+02
     .792000000000D+05  .400000000000D+01
17 22  5  9  0  0  0.0  .610297080129D-03  .466116034659D-11  .000000000000D+00
     .860000000000D+02  .445000000000D+02  .412195741036D-08 -.192095282911D+00
     .208057463169D-05  .135041949106D-01  .730529427528D-05  .515354827309D+04
     .864000000000D+05 -.219792127609D-06  .187285962401D+01  .111758708954D-07
     .978794572963D+00  .252250000000D+03 -.149401008724D+01 -.808247952486D-08
     .425017703693D-10  .100000000000D+01  .220900000000D+04  .000000000000D+00
     .340000000000D+01  .000000000000D+00 -.111758708954D-07  .860000000000D+02
     .792000000000D+05  .400000000000D+01
25 22  5  9  0  0  0.0  .322260428220D-03  .488853402203D-11  .000000000000D+00
     .440000000000D+02  .242187500000D+02  .451804533758D-08  .235111141602D+01
     .116042792797D-05  .105254895752D-01  .686943531036D-05  .515367209816D+04
     .864000000000D+05  .670552253723D-07  .756802126269D+00 -.204890966415D-06
     .957017580286D+00  .243812500000D+03  .100350623343D+01 -.792854454142D-08
    -.164292557730D-09  .100000000000D+01  .220900000000D+04  .000000000000D+00
     .240000000000D+01  .000000000000D+00  .558793544769D-08  .440000000000D+02
     .792000000000D+05  .400000000000D+01
26 22  5  9  0  0  0.0  .204299576581D-03  .261479726760D-11  .000000000000D+00
     .101000000000D+03  .214375000000D+02  .507878298027D-08  .168479278739D+01
     .111572444439D-05  .692514237016D-02  .654347240925D-05  .515374226570D+04
     .864000000000D+05 -.875443220139D-07  .708265150818D+00  .279396772385D-07
     .937877079053D+00  .242000000000D+03  .390879375455D+00 -.833248993879D-08
    -.262510934634D-09  .100000000000D+01  .220900000000D+04  .000000000000D+00
     .240000000000D+01  .000000000000D+00  .698491930962D-08  .101000000000D+03
     .792000000000D+05  .400000000000D+01
14 22  5  9  0  0  0.0 -.107347499579D-03 -.193267624127D-11  .000000000000D+00
     .700000000000D+01  .307187500000D+02  .465912264259D-08  .265242869523D+01
     .166147947311D-05  .183019589167D-02  .687688589096D-05  .515365707588D+04
     .864000000000D+05 -.242143869400D-07  .801935126880D+00  .298023223877D-07
     .952915282964D+00  .239781250000D+03  .308381983158D+01 -.808176520939D-08
    -.176435920693D-09  .100000000000D+01  .220900000000D+04  .000000000000D+00
     .240000000000D+01  .000000000000D+00 -.791624188423D-08  .263000000000D+03
     .792000000000D+05  .400000000000D+01
